NORAD_CAT_ID,OBJECT_NAME,OBJECT_TYPE,EPOCH,MEAN_MOTION,ECCENTRICITY,INCLINATION,RA_OF_ASC_NODE,ARG_OF_PERICENTER,MEAN_ANOMALY,BSTAR,MEAN_MOTION_DOT,MEAN_MOTION_DDOT,TLE_LINE0,TLE_LINE1,TLE_LINE2,SEMIMAJOR_AXIS,PERIOD,APOGEE,PERIGEE,DECAYED
52480.0,STARLINK-3839,PAYLOAD,2023-03-28 15:08:28,15.08859985,0.0001431,53.2156,214.2284,80.4317,279.6837,-3.6639e-05,-8.71e-06,0.0,0 STARLINK-3839,1 52480U 22049AF  23087.63088079 -.00000871  00000-0 -36639-4 0  9996,2 52480  53.2156 214.2284 0001431  80.4317 279.6837 15.08859985 49810,6917.819,95.436,540.674,538.694,0.0
52480.0,STARLINK-3839,PAYLOAD,2023-03-28 18:19:13,15.0886426,0.0001244,53.2144,213.6305,89.3324,270.7811,3.0998e-05,2.06e-06,0.0,0 STARLINK-3839,1 52480U 22049AF  23087.76335581  .00000206  00000-0  30998-4 0  9995,2 52480  53.2144 213.6305 0001244  89.3324 270.7811 15.08864260 49672,6917.806,95.436,540.532,538.811,0.0
52480.0,STARLINK-3839,PAYLOAD,2023-03-29 07:02:19,15.08842716,0.0002035,53.2161,211.2557,68.6164,291.5045,-9.1584e-05,-1.746e-05,0.0,0 STARLINK-3839,1 52480U 22049AF  23088.29328589 -.00001746  00000-0 -91584-4 0  9994,2 52480  53.2161 211.2557 0002035  68.6164 291.5045 15.08842716 49914,6917.872,95.437,541.145,538.329,0.0
52480.0,STARLINK-3839,PAYLOAD,2023-03-29 13:23:51,15.08852761,0.0001594,53.2159,210.064,102.1033,258.0138,5.8018e-05,6.36e-06,0.0,0 STARLINK-3839,1 52480U 22049AF  23088.55823799  .00000636  00000-0  58018-4 0  9996,2 52480  53.2159 210.0640 0001594 102.1033 258.0138 15.08852761 49955,6917.841,95.437,540.809,538.604,0.0
52480.0,STARLINK-3839,PAYLOAD,2023-03-29 14:59:14,15.08857661,0.0001499,53.2155,209.7649,108.2144,251.9012,6.2372e-05,7.05e-06,0.0,0 STARLINK-3839,1 52480U 22049AF  23088.62447396  .00000705  00000-0  62372-4 0  9994,2 52480  53.2155 209.7649 0001499 108.2144 251.9012 15.08857661 49800,6917.826,95.436,540.728,538.654,0.0
52480.0,STARLINK-3839,PAYLOAD,2023-03-30 06:53:06,15.0884033,0.0001666,53.2158,206.7923,111.7159,248.4011,-1.5933e-05,-5.42e-06,0.0,0 STARLINK-3839,1 52480U 22049AF  23089.28688370 -.00000542  00000-0 -15933-4 0  9998,2 52480  53.2158 206.7923 0001666 111.7159 248.4011 15.08840330 50061,6917.879,95.438,540.897,538.592,0.0
52480.0,STARLINK-3839,PAYLOAD,2023-03-30 14:50:02,15.08847687,0.0001475,53.2153,205.3041,108.1152,252.0001,7.4297e-05,8.95e-06,0.0,0 STARLINK-3839,1 52480U 22049AF  23089.61807887  .00000895  00000-0  74297-4 0  9998,2 52480  53.2153 205.3041 0001475 108.1152 252.0001 15.08847687 49951,6917.857,95.437,540.742,538.702,0.0
52480.0,STARLINK-3839,PAYLOAD,2023-03-31 13:05:25,15.08848502,0.0001321,53.2153,201.1414,108.0326,252.081,0.00012922,1.77e-05,0.0,0 STARLINK-3839,1 52480U 22049AF  23090.54543823  .00001770  00000-0  12922-3 0  9998,2 52480  53.2153 201.1414 0001321 108.0326 252.0810 15.08848502 50251,6917.854,95.437,540.633,538.806,0.0
52480.0,STARLINK-3839,PAYLOAD,2023-04-01 06:34:41,15.08821255,0.00014,53.216,197.8705,109.2853,250.8291,-0.00025134,-4.284e-05,0.0,0 STARLINK-3839,1 52480U 22049AF  23091.27409388 -.00004284  00000-0 -25134-3 0  9990,2 52480  53.2160 197.8705 0001400 109.2853 250.8291 15.08821255 50366,6917.938,95.439,540.771,538.834,0.0
52480.0,STARLINK-3839,PAYLOAD,2023-04-01 12:56:14,15.0882531,0.0001489,53.2163,196.6827,105.3147,254.8009,-0.00013583,-2.448e-05,0.0,0 STARLINK-3839,1 52480U 22049AF  23091.53905475 -.00002448  00000-0 -13583-3 0  9992,2 52480  53.2163 196.6827 0001489 105.3147 254.8009 15.08825310 50245,6917.925,95.438,540.82,538.76,0.0
52480.0,STARLINK-3839,PAYLOAD,2023-04-01 16:07:00,15.08834749,0.0001348,53.2157,196.0856,108.232,251.8819,6.7484e-06,-1.81e-06,0.0,0 STARLINK-3839,1 52480U 22049AF  23091.67153143 -.00000181  00000-0  67484-5 0  9996,2 52480  53.2157 196.0856 0001348 108.2320 251.8819 15.08834749 50425,6917.896,95.438,540.694,538.829,0.0
52480.0,STARLINK-3839,PAYLOAD,2023-04-02 14:22:23,15.08851787,0.0001254,53.2152,191.9254,93.6309,266.4827,0.00042827,6.537e-05,0.0,0 STARLINK-3839,1 52480U 22049AF  23092.59888877  .00006537  00000-0  42827-3 0  9999,2 52480  53.2152 191.9254 0001254  93.6309 266.4827 15.08851787 50563,6917.844,95.437,540.577,538.842,0.0
52480.0,STARLINK-3839,PAYLOAD,2023-04-02 15:57:47,15.08856666,0.0001317,53.2145,191.6267,97.9892,262.1249,0.00072457,0.00011268,0.0,0 STARLINK-3839,1 52480U 22049AF  23092.66512853  .00011268  00000-0  72457-3 0  9994,2 52480  53.2145 191.6267 0001317  97.9892 262.1249 15.08856666 50416,6917.829,95.437,540.606,538.783,0.0
52480.0,STARLINK-3839,PAYLOAD,2023-04-03 06:16:16,15.08840408,0.0001791,53.2145,188.9516,81.5839,278.5356,0.00019487,2.815e-05,0.0,0 STARLINK-3839,1 52480U 22049AF  23093.26129825  .00002815  00000-0  19487-3 0  9996,2 52480  53.2145 188.9516 0001791  81.5839 278.5356 15.08840408 50662,6917.879,95.438,540.983,538.505,0.0
52480.0,STARLINK-3839,PAYLOAD,2023-04-03 11:02:25,15.08833011,0.0001085,53.2147,188.0599,78.3196,281.7918,3.6216e-05,2.89e-06,0.0,0 STARLINK-3839,1 52480U 22049AF  23093.46001837  .00000289  00000-0  36216-4 0  9993,2 52480  53.2147 188.0599 0001085  78.3196 281.7918 15.08833011 50530,6917.902,95.438,540.517,539.016,0.0
52480.0,STARLINK-3839,PAYLOAD,2023-04-04 10:53:12,15.08864884,0.0001381,53.2152,183.5988,70.6831,289.4311,0.0011954,0.00018801,0.0,0 STARLINK-3839,1 52480U 22049AF  23094.45361415  .00018801  00000-0  11954-2 0  9993,2 52480  53.2152 183.5988 0001381  70.6831 289.4311 15.08864884 50846,6917.804,95.436,540.625,538.714,0.0
52480.0,STARLINK-3839,PAYLOAD,2023-04-05 05:57:49,15.08852135,0.00012,53.2149,180.0296,71.104,289.0082,0.00053419,8.227e-05,0.0,0 STARLINK-3839,1 52480U 22049AF  23095.24849409  .00008227  00000-0  53419-3 0  9999,2 52480  53.2149 180.0296 0001200  71.1040 289.0082 15.08852135 50964,6917.843,95.437,540.538,538.878,0.0
52480.0,STARLINK-3839,PAYLOAD,2023-04-05 12:19:22,15.08840644,0.0001185,53.2154,178.8379,86.862,273.2508,0.00016312,2.309e-05,0.0,0 STARLINK-3839,1 52480U 22049AF  23095.51345513  .00002309  00000-0  16312-3 0  9992,2 52480  53.2154 178.8379 0001185  86.8620 273.2508 15.08840644 50843,6917.878,95.438,540.563,538.924,0.0
52480.0,STARLINK-3839,PAYLOAD,2023-04-06 12:10:09,15.0885265,0.0001513,53.2152,174.3789,95.3354,264.7811,0.00024801,3.663e-05,0.0,0 STARLINK-3839,1 52480U 22049AF  23096.50705078  .00003663  00000-0  24801-3 0  9994,2 52480  53.2152 174.3789 0001513  95.3354 264.7811 15.08852650 50999,6917.842,95.437,540.753,538.66,0.0
52480.0,STARLINK-3839,PAYLOAD,2023-04-06 21:42:28,15.08843717,0.0001453,53.2144,172.5957,94.3533,265.7625,0.00016164,2.286e-05,0.0,0 STARLINK-3839,1 52480U 22049AF  23096.90449386  .00002286  00000-0  16164-3 0  9998,2 52480  53.2144 172.5957 0001453  94.3533 265.7625 15.08843717 51212,6917.869,95.437,540.739,538.729,0.0
52480.0,STARLINK-3839,PAYLOAD,2023-04-07 10:25:33,15.08841347,0.000156,53.2164,170.2176,102.752,257.3647,0.00010293,1.351e-05,0.0,0 STARLINK-3839,1 52480U 22049AF  23097.43441443  .00001351  00000-0  10293-3 0  9992,2 52480  53.2164 170.2176 0001560 102.7520 257.3647 15.08841347 51130,6917.876,95.437,540.82,538.662,0.0
52480.0,STARLINK-3839,PAYLOAD,2023-04-08 05:30:10,15.08842331,0.0001532,53.2157,166.6486,102.1167,257.9997,-3.3863e-06,-3.42e-06,0.0,0 STARLINK-3839,1 52480U 22049AF  23098.22929259 -.00000342  00000-0 -33863-5 0  9997,2 52480  53.2157 166.6486 0001532 102.1167 257.9997 15.08842331 51414,6917.873,95.437,540.798,538.678,0.0
52480.0,STARLINK-3839,PAYLOAD,2023-04-08 11:51:43,15.08843739,0.0001431,53.2157,165.4594,97.2326,262.8829,1.5683e-05,-3.8e-07,0.0,0 STARLINK-3839,1 52480U 22049AF  23098.49425266 -.00000038  00000-0  15683-4 0  9995,2 52480  53.2157 165.4594 0001431  97.2326 262.8829 15.08843739 51298,6917.869,95.437,540.724,538.744,0.0
52480.0,STARLINK-3839,PAYLOAD,2023-04-09 05:20:58,15.08831398,0.0001185,53.216,162.1876,82.2941,277.8186,0.00015813,2.229e-05,0.0,0 STARLINK-3839,1 52480U 22049AF  23099.22289993  .00002229  00000-0  15813-3 0  9999,2 52480  53.2160 162.1876 0001185  82.2941 277.8186 15.08831398 51562,6917.907,95.438,540.591,538.952,0.0
52480.0,STARLINK-3839,PAYLOAD,2023-04-09 10:07:07,15.08835508,0.0001493,53.2159,161.2954,82.516,277.6002,8.5047e-06,-1.53e-06,0.0,0 STARLINK-3839,1 52480U 22049AF  23099.42161866 -.00000153  00000-0  85047-5 0  9992,2 52480  53.2159 161.2954 0001493  82.5160 277.6002 15.08835508 51433,6917.894,95.438,540.792,538.726,0.0
52480.0,STARLINK-3839,PAYLOAD,2023-04-09 21:14:49,15.08839274,0.0001582,53.216,159.2146,74.9482,285.1685,6.7336e-05,7.84e-06,0.0,0 STARLINK-3839,1 52480U 22049AF  23099.88529822  .00000784  00000-0  67336-4 0  9991,2 52480  53.2160 159.2146 0001582  74.9482 285.1685 15.08839274 51509,6917.883,95.438,540.842,538.653,0.0
52480.0,STARLINK-3839,PAYLOAD,2023-04-10 08:22:31,15.08842071,0.0001324,53.217,157.1325,75.688,284.426,0.00015733,2.217e-05,0.0,0 STARLINK-3839,1 52480U 22049AF  23100.34897610  .00002217  00000-0  15733-3 0  9994,2 52480  53.2170 157.1325 0001324  75.6880 284.4260 15.08842071 51735,6917.874,95.437,540.655,538.823,0.0
52480.0,STARLINK-3839,PAYLOAD,2023-04-11 09:48:41,15.08847163,0.0001287,53.2143,152.3739,72.6285,287.4848,0.00018223,2.614e-05,0.0,0 STARLINK-3839,1 52480U 22049AF  23101.40881260  .00002614  00000-0  18223-3 0  9994,2 52480  53.2143 152.3739 0001287  72.6285 287.4848 15.08847163 51894,6917.858,95.437,540.614,538.833,0.0
52480.0,STARLINK-3839,PAYLOAD,2023-04-11 20:56:23,15.08845383,0.0001363,53.2141,150.2935,68.6563,291.4575,0.00011613,1.561e-05,0.0,0 STARLINK-3839,1 52480U 22049AF  23101.87249259  .00001561  00000-0  11613-3 0  9997,2 52480  53.2141 150.2935 0001363  68.6563 291.4575 15.08845383 51801,6917.864,95.437,540.672,538.786,0.0
52480.0,STARLINK-3839,PAYLOAD,2023-04-12 03:17:56,15.08831332,0.0001394,53.215,149.1035,87.2133,272.9019,0.00026213,3.885e-05,0.0,0 STARLINK-3839,1 52480U 22049AF  23102.13745977  .00003885  00000-0  26213-3 0  9998,2 52480  53.2150 149.1035 0001394  87.2133 272.9019 15.08831332 52002,6917.907,95.438,540.736,538.808,0.0
